{"type": "FeatureCollection", "features": [ {"type": "Feature", "properties": {"norad_id": 66677, "name": "TRANSPORTER-15M", "group": "last-30-days", "lat": 10.943000561467121, "lon": 70.90918041659674, "alt_km": 516.2070389970822, "timestamp": "2025-12-26T20:30:44.699524+00:00", "meta": {"OBJECT_NAME": "TRANSPORTER-15M", "OBJECT_ID": "2025-276M", "EPOCH": "2025-12-26T14:08:02.635296", "MEAN_MOTION": 15.17589953, "ECCENTRICITY": 0.00039076, "INCLINATION": 97.4376, "RA_OF_ASC_NODE": 72.0955, "ARG_OF_PERICENTER": 246.8671, "MEAN_ANOMALY": 113.2151, "EPHEMERIS_TYPE": 0, "CLASSIFICATION_TYPE": "U", "NORAD_CAT_ID": 66677, "ELEMENT_SET_NO": 999, "REV_AT_EPOCH": 422, "BSTAR": 0.00072202984, "MEAN_MOTION_DOT": 0.00014462, "MEAN_MOTION_DDOT": 0}, "tle": {"line1": "1 66677U 25276M   25360.58891939  .00014462  00000+0  72203-3 0  9995", "line2": "2 66677  97.4376  72.0955 0003907 246.8671 113.2151 15.17589953  4226"}}, "geometry": {"type": "Point", "coordinates": [70.90918041659674, 10.943000561467121]}}, {"type": "Feature", "properties": {"norad_id": 66678, "name": "TRANSPORTER-15N", "group": "last-30-days", "lat": -36.62276135562735, "lon": 77.90361159004944, "alt_km": 519.7596851148301, "timestamp": "2025-12-26T20:30:44.699533+00:00", "meta": {"OBJECT_NAME": "TRANSPORTER-15N", "OBJECT_ID": "2025-276N", "EPOCH": "2025-12-26T14:20:33.691488", "MEAN_MOTION": 15.16994901, "ECCENTRICITY": 0.00064083, "INCLINATION": 97.438, "RA_OF_ASC_NODE": 72.0789, "ARG_OF_PERICENTER": 33.2631, "MEAN_ANOMALY": 326.9004, "EPHEMERIS_TYPE": 0, "CLASSIFICATION_TYPE": "U", "NORAD_CAT_ID": 66678, "ELEMENT_SET_NO": 999, "REV_AT_EPOCH": 422, "BSTAR": 0.00050116996, "MEAN_MOTION_DOT": 9.846e-05, "MEAN_MOTION_DDOT": 0}, "tle": {"line1": "1 66678U 25276N   25360.59761217  .00009846  00000+0  50117-3 0  9992", "line2": "2 66678  97.4380  72.0789 0006408  33.2631 326.9004 15.16994901  4222"}}, "geometry": {"type": "Point", "coordinates": [77.90361159004944, -36.62276135562735]}}, {"type": "Feature", "properties": {"norad_id": 66679, "name": "TRANSPORTER-15P", "group": "last-30-days", "lat": -46.329850128483116, "lon": 80.19043769949151, "alt_km": 521.6348072384944, "timestamp": "2025-12-26T20:30:44.699543+00:00", "meta": {"OBJECT_NAME": "TRANSPORTER-15P", "OBJECT_ID": "2025-276P", "EPOCH": "2025-12-26T14:23:06.521856", "MEAN_MOTION": 15.16724504, "ECCENTRICITY": 0.00047524, "INCLINATION": 97.4359, "RA_OF_ASC_NODE": 72.0766, "ARG_OF_PERICENTER": 240.7216, "MEAN_ANOMALY": 119.3542, "EPHEMERIS_TYPE": 0, "CLASSIFICATION_TYPE": "U", "NORAD_CAT_ID": 66679, "ELEMENT_SET_NO": 999, "REV_AT_EPOCH": 422, "BSTAR": 0.00020860449, "MEAN_MOTION_DOT": 4.024e-05, "MEAN_MOTION_DDOT": 0}, "tle": {"line1": "1 66679U 25276P   25360.59938104  .00004024  00000+0  20860-3 0  9999", "line2": "2 66679  97.4359  72.0766 0004752 240.7216 119.3542 15.16724504  4229"}}, "geometry": {"type": "Point", "coordinates": [80.19043769949151, -46.329850128483116]}}, {"type": "Feature", "properties": {"norad_id": 66680, "name": "TRANSPORTER-15Q", "group": "last-30-days", "lat": -36.370684775066024, "lon": 77.87059255623197, "alt_km": 521.7623446148818, "timestamp": "2025-12-26T20:30:44.699554+00:00", "meta": {"OBJECT_NAME": "TRANSPORTER-15Q", "OBJECT_ID": "2025-276Q", "EPOCH": "2025-12-25T05:05:38.818176", "MEAN_MOTION": 15.16866532, "ECCENTRICITY": 0.000484, "INCLINATION": 97.4407, "RA_OF_ASC_NODE": 70.7353, "ARG_OF_PERICENTER": 236.3987, "MEAN_ANOMALY": 123.6784, "EPHEMERIS_TYPE": 0, "CLASSIFICATION_TYPE": "U", "NORAD_CAT_ID": 66680, "ELEMENT_SET_NO": 999, "REV_AT_EPOCH": 401, "BSTAR": 0.00055928, "MEAN_MOTION_DOT": 0.00010954, "MEAN_MOTION_DDOT": 0}, "tle": {"line1": "1 66680U 25276Q   25359.21225484  .00010954  00000+0  55928-3 0  9990", "line2": "2 66680  97.4407  70.7353 0004840 236.3987 123.6784 15.16866532  4017"}}, "geometry": {"type": "Point", "coordinates": [77.87059255623197, -36.370684775066024]}}, {"type": "Feature", "properties": {"norad_id": 66681, "name": "TRANSPORTER-15R", "group": "last-30-days", "lat": 0.22526284329492793, "lon": 72.30660081360669, "alt_km": 516.8736928409489, "timestamp": "2025-12-26T20:30:44.699563+00:00", "meta": {"OBJECT_NAME": "TRANSPORTER-15R", "OBJECT_ID": "2025-276R", "EPOCH": "2025-12-26T14:10:53.563008", "MEAN_MOTION": 15.17580502, "ECCENTRICITY": 0.0004894, "INCLINATION": 97.4329, "RA_OF_ASC_NODE": 72.0771, "ARG_OF_PERICENTER": 259.4422, "MEAN_ANOMALY": 100.6261, "EPHEMERIS_TYPE": 0, "CLASSIFICATION_TYPE": "U", "NORAD_CAT_ID": 66681, "ELEMENT_SET_NO": 999, "REV_AT_EPOCH": 422, "BSTAR": 0.00088581802, "MEAN_MOTION_DOT": 0.00017763, "MEAN_MOTION_DDOT": 0}, "tle": {"line1": "1 66681U 25276R   25360.59089772  .00017763  00000+0  88582-3 0  9999", "line2": "2 66681  97.4329  72.0771 0004894 259.4422 100.6261 15.17580502  4228"}}, "geometry": {"type": "Point", "coordinates": [72.30660081360669, 0.22526284329492793]}}, {"type": "Feature", "properties": {"norad_id": 66682, "name": "TRANSPORTER-15S", "group": "last-30-days", "lat": -36.219722168743644, "lon": 77.85219007932126, "alt_km": 534.2435302433742, "timestamp": "2025-12-26T20:30:44.699572+00:00", "meta": {"OBJECT_NAME": "TRANSPORTER-15S", "OBJECT_ID": "2025-276S", "EPOCH": "2025-12-26T12:44:55.444128", "MEAN_MOTION": 15.14975943, "ECCENTRICITY": 0.00112987, "INCLINATION": 97.4403, "RA_OF_ASC_NODE": 72.0431, "ARG_OF_PERICENTER": 140.0138, "MEAN_ANOMALY": 220.1929, "EPHEMERIS_TYPE": 0, "CLASSIFICATION_TYPE": "U", "NORAD_CAT_ID": 66682, "ELEMENT_SET_NO": 999, "REV_AT_EPOCH": 421, "BSTAR": 0.026074152, "MEAN_MOTION_DOT": 0.00516944, "MEAN_MOTION_DDOT": 0}, "tle": {"line1": "1 66682U 25276S   25360.53119727  .00516944  00000+0  26074-1 0  9999", "line2": "2 66682  97.4403  72.0431 0011298 140.0138 220.1929 15.14975943  4212"}}, "geometry": {"type": "Point", "coordinates": [77.85219007932126, -36.219722168743644]}}, {"type": "Feature", "properties": {"norad_id": 66683, "name": "TRANSPORTER-15T", "group": "last-30-days", "lat": -23.16867061505767, "lon": 75.57390341109478, "alt_km": 521.5116604280747, "timestamp": "2025-12-26T20:30:44.699606+00:00", "meta": {"OBJECT_NAME": "TRANSPORTER-15T", "OBJECT_ID": "2025-276T", "EPOCH": "2025-12-26T14:16:59.828160", "MEAN_MOTION": 15.17071215, "ECCENTRICITY": 0.00049059, "INCLINATION": 97.4443, "RA_OF_ASC_NODE": 72.1112, "ARG_OF_PERICENTER": 225.1394, "MEAN_ANOMALY": 134.9441, "EPHEMERIS_TYPE": 0, "CLASSIFICATION_TYPE": "U", "NORAD_CAT_ID": 66683, "ELEMENT_SET_NO": 999, "REV_AT_EPOCH": 422, "BSTAR": 0.00045827198, "MEAN_MOTION_DOT": 9.014e-05, "MEAN_MOTION_DDOT": 0}, "tle": {"line1": "1 66683U 25276T   25360.59513690  .00009014  00000+0  45827-3 0  9997", "line2": "2 66683  97.4443  72.1112 0004905 225.1394 134.9441 15.17071215  4224"}}, "geometry": {"type": "Point", "coordinates": [75.57390341109478, -23.16867061505767]}}, {"type": "Feature", "properties": {"norad_id": 66684, "name": "TRANSPORTER-15U", "group": "last-30-days", "lat": -1.6525786195842476, "lon": 72.60020869749557, "alt_km": 519.2477701464004, "timestamp": "2025-12-26T20:30:44.699615+00:00", "meta": {"OBJECT_NAME": "TRANSPORTER-15U", "OBJECT_ID": "2025-276U", "EPOCH": "2025-12-26T09:26:28.287744", "MEAN_MOTION": 15.17404693, "ECCENTRICITY": 0.00046454, "INCLINATION": 97.4468, "RA_OF_ASC_NODE": 71.9305, "ARG_OF_PERICENTER": 224.2979, "MEAN_ANOMALY": 135.7884, "EPHEMERIS_TYPE": 0, "CLASSIFICATION_TYPE": "U", "NORAD_CAT_ID": 66684, "ELEMENT_SET_NO": 999, "REV_AT_EPOCH": 419, "BSTAR": 0.00057817767, "MEAN_MOTION_DOT": 0.00011502, "MEAN_MOTION_DDOT": 0}, "tle": {"line1": "1 66684U 25276U   25360.39338296  .00011502  00000+0  57818-3 0  9991", "line2": "2 66684  97.4468  71.9305 0004645 224.2979 135.7884 15.17404693  4199"}}, "geometry": {"type": "Point", "coordinates": [72.60020869749557, -1.6525786195842476]}}, {"type": "Feature", "properties": {"norad_id": 66685, "name": "TRANSPORTER-15V", "group": "last-30-days", "lat": 6.825273153464997, "lon": 71.47162010250499, "alt_km": 517.873739536747, "timestamp": "2025-12-26T20:30:44.699624+00:00", "meta": {"OBJECT_NAME": "TRANSPORTER-15V", "OBJECT_ID": "2025-276V", "EPOCH": "2025-12-26T03:04:19.749504", "MEAN_MOTION": 15.17397324, "ECCENTRICITY": 0.00032136, "INCLINATION": 97.4413, "RA_OF_ASC_NODE": 71.6542, "ARG_OF_PERICENTER": 231.2605, "MEAN_ANOMALY": 128.8342, "EPHEMERIS_TYPE": 0, "CLASSIFICATION_TYPE": "U", "NORAD_CAT_ID": 66685, "ELEMENT_SET_NO": 999, "REV_AT_EPOCH": 415, "BSTAR": -0.0041618973, "MEAN_MOTION_DOT": -0.00082255, "MEAN_MOTION_DDOT": 0}, "tle": {"line1": "1 66685U 25276V   25360.12800636 -.00082255  00000+0 -41619-2 0  9991", "line2": "2 66685  97.4413  71.6542 0003213 231.2605 128.8342 15.17397324  4154"}}, "geometry": {"type": "Point", "coordinates": [71.47162010250499, 6.825273153464997]}}, {"type": "Feature", "properties": {"norad_id": 66686, "name": "TRANSPORTER-15W", "group": "last-30-days", "lat": -0.5325492588126344, "lon": 72.43074824074931, "alt_km": 521.0154069002247, "timestamp": "2025-12-26T20:30:44.699635+00:00", "meta": {"OBJECT_NAME": "TRANSPORTER-15W", "OBJECT_ID": "2025-276W", "EPOCH": "2025-12-24T16:18:47.855520", "MEAN_MOTION": 15.18035485, "ECCENTRICITY": 0.00181838, "INCLINATION": 97.4405, "RA_OF_ASC_NODE": 70.2223, "ARG_OF_PERICENTER": 243.6801, "MEAN_ANOMALY": 116.2566, "EPHEMERIS_TYPE": 0, "CLASSIFICATION_TYPE": "U", "NORAD_CAT_ID": 66686, "ELEMENT_SET_NO": 999, "REV_AT_EPOCH": 393, "BSTAR": 0.0029615296, "MEAN_MOTION_DOT": 0.00060911, "MEAN_MOTION_DDOT": 0}, "tle": {"line1": "1 66686U 25276W   25358.67972055  .00060911  00000+0  29615-2 0  9999", "line2": "2 66686  97.4405  70.2223 0018183 243.6801 116.2566 15.18035485  3936"}}, "geometry": {"type": "Point", "coordinates": [72.43074824074931, -0.5325492588126344]}}]}